{"type": "FeatureCollection", "features": [{"type": "Feature", "id": 328, "geometry": {"type": "Polygon", "coordinates": [[[111.85184999923091, -7.522769999896124, 5.999998847983079e-06], [111.84327173954613, -7.513896162865647, 5.999998847983079e-06], [111.83949071254897, -7.522595898820946, 5.999998847983079e-06], [111.8467300009634, -7.5248199996011875, 5.999998847983079e-06], [111.84696000111718, -7.532410000344724, 5.999998847983079e-06], [111.85149161814495, -7.537892985861942, 5.999998847983079e-06], [111.84839757865961, -7.540439076395086, 5.999998847983079e-06], [111.85865876555383, -7.54711294781679, 5.999998847983079e-06], [111.85905999987214, -7.556029998773262, 5.999998847983079e-06], [111.85016591049975, -7.551248473221334, 5.999998847983079e-06], [111.84825679828153, -7.555783384826512, 5.999998847983079e-06], [111.84177467287063, -7.553145513156068, 5.999998847983079e-06], [111.84148000120295, -7.558719999283233, 5.999998847983079e-06], [111.8458340311805, -7.561894792669881, 5.999998847983079e-06], [111.84162999919413, -7.564450000323539, 5.999998847983079e-06], [111.83214999984739, -7.562829999569856, 5.999998847983079e-06], [111.82038999995277, -7.589259999459521, 5.999998847983079e-06], [111.80135000089331, -7.6185300002304865, 5.999998847983079e-06], [111.81415000015532, -7.630640000000949, 5.999998847983079e-06], [111.81484999976406, -7.636379999271545, 5.999998847983079e-06], [111.82284999952739, -7.6256600018387655, 5.999998847983079e-06], [111.83762319322672, -7.613897415551809, 5.999998847983079e-06], [111.84822276291207, -7.612420771771338, 5.999998847983079e-06], [111.85662035342688, -7.61599911175542, 5.999998847983079e-06], [111.86244922036992, -7.612931323177443, 5.999998847983079e-06], [111.86817646539642, -7.616654536869638, 5.999998847983079e-06], [111.87317999978228, -7.611199998357469, 5.999998847983079e-06], [111.88209000011496, -7.611339999618477, 5.999998847983079e-06], [111.88374000137429, -7.600329999584777, 5.999998847983079e-06], [111.88077095437592, -7.599221102266636, 5.999998847983079e-06], [111.88137071996525, -7.596077475828519, 5.999998847983079e-06], [111.888540000873, -7.593259998418286, 5.999998847983079e-06], [111.88864796309875, -7.583218971495212, 5.999998847983079e-06], [111.89241851753634, -7.581242293501891, 5.999998847983079e-06], [111.8912256832981, -7.579506076979962, 5.999998847983079e-06], [111.89820000014474, -7.5792399992717, 5.999998847983079e-06], [111.89989999983621, -7.576229999943427, 5.999998847983079e-06], [111.89028367485689, -7.570663947652056, 5.999998847983079e-06], [111.88978115189707, -7.576186439769222, 5.999998847983079e-06], [111.88774671301861, -7.575843795274492, 5.999998847983079e-06], [111.8876200002579, -7.573369999529193, 5.999998847983079e-06], [111.88356192564058, -7.572292665287924, 5.999998847983079e-06], [111.887092312792, -7.566580100978337, 5.999998847983079e-06], [111.8799596193675, -7.5675001869754075, 5.999998847983079e-06], [111.87737155955925, -7.564561156673952, 5.999998847983079e-06], [111.87707174683317, -7.566507554270803, 5.999998847983079e-06], [111.86534608054868, -7.567294682902124, 5.999998847983079e-06], [111.86461083643809, -7.562157774121418, 5.999998847983079e-06], [111.86639873358514, -7.5629498948211165, 5.999998847983079e-06], [111.86770299844447, -7.5537656331935565, 5.999998847983079e-06], [111.87030136821724, -7.553762063100275, 5.999998847983079e-06], [111.87116613232384, -7.549317964231878, 5.999998847983079e-06], [111.86418999998199, -7.5458516025462705, 5.999998847983079e-06], [111.86738999845, -7.540859998617418, 5.999998847983079e-06], [111.85843224547348, -7.526196678782491, 5.999998847983079e-06], [111.85184999923091, -7.522769999896124, 5.999998847983079e-06]]]}, "properties": {"OBJECTID": 328, "WADMKC": "Bagor", "InPoly_FID": 328, "MaxSimpTol": 200, "MinSimpTol": 200, "Shape_Length": 51073.50042225987, "Shape_Area": 54593802.4318494}}, {"type": "Feature", "id": 731, "geometry": {"type": "Polygon", "coordinates": [[[111.87621000016763, -7.614270001272195, 5.999998847983079e-06], [111.87350000124603, -7.611150001457638, 5.999998847983079e-06], [111.86817646539642, -7.616654536869638, 5.999998847983079e-06], [111.86244922036992, -7.612931323177443, 5.999998847983079e-06], [111.85662035342688, -7.61599911175542, 5.999998847983079e-06], [111.84822276291207, -7.612420771771338, 5.999998847983079e-06], [111.83762319322672, -7.613897415551809, 5.999998847983079e-06], [111.82284999952739, -7.6256600018387655, 5.999998847983079e-06], [111.81527000168526, -7.636050000393523, 5.999998847983079e-06], [111.80954000062744, -7.652990000052579, 5.999998847983079e-06], [111.80197000193273, -7.659650001908215, 5.999998847983079e-06], [111.79000000107752, -7.681039999390843, 5.999998847983079e-06], [111.79577999877075, -7.691369999059144, 5.999998847983079e-06], [111.80207999884266, -7.691759999481867, 5.999998847983079e-06], [111.8076579815982, -7.683624723566938, 5.999998847983079e-06], [111.81660000058253, -7.683810000517318, 5.999998847983079e-06], [111.82410000075365, -7.679709998869088, 5.999998847983079e-06], [111.82653080058998, -7.6823665202035825, 5.999998847983079e-06], [111.83816649341222, -7.678630062111916, 5.999998847983079e-06], [111.84546999879306, -7.6690799994188055, 5.999998847983079e-06], [111.85481000019435, -7.670419999849166, 5.999998847983079e-06], [111.8650299984345, -7.666799998236458, 5.999998847983079e-06], [111.86700380642115, -7.66905541878236, 5.999998847983079e-06], [111.86442470910448, -7.681922434498804, 5.999998847983079e-06], [111.85866105535949, -7.691306461310886, 5.999998847983079e-06], [111.86081525314007, -7.696407508375683, 5.999998847983079e-06], [111.8668100002885, -7.696370000612602, 5.999998847983079e-06], [111.86738999845, -7.693069998847654, 5.999998847983079e-06], [111.87190270773769, -7.691325623588853, 5.999998847983079e-06], [111.87740000022112, -7.668109999776192, 5.999998847983079e-06], [111.88241999982782, -7.661649998953831, 5.999998847983079e-06], [111.88768000053236, -7.661930000426123, 5.999998847983079e-06], [111.88942000040674, -7.658560000117273, 5.999998847983079e-06], [111.88518999992218, -7.654680000169627, 5.999998847983079e-06], [111.87879000118947, -7.6560700001703905, 5.999998847983079e-06], [111.87508757857631, -7.652942966552069, 5.999998847983079e-06], [111.87583000022603, -7.640689999473149, 5.999998847983079e-06], [111.88307000010617, -7.629769999470313, 5.999998847983079e-06], [111.88739000100244, -7.630200000578045, 5.999998847983079e-06], [111.88999000031916, -7.623899999643674, 5.999998847983079e-06], [111.87621000016763, -7.614270001272195, 5.999998847983079e-06]]]}, "properties": {"OBJECTID": 731, "WADMKC": "Berbek", "InPoly_FID": 731, "MaxSimpTol": 200, "MinSimpTol": 200, "Shape_Length": 42644.37337504268, "Shape_Area": 58538955.8157829}}, {"type": "Feature", "id": 1692, "geometry": {"type": "MultiPolygon", "coordinates": [[[[111.80230999989473, -8.047239999708761, 5.999998847983079e-06], [111.79717000063745, -8.045820000873782, 5.999998847983079e-06], [111.78797000077488, -8.035109999131986, 5.999998847983079e-06], [111.77921772304654, -8.03873198732897, 5.999998847983079e-06], [111.78724104487128, -8.048116874320424, 5.999998847983079e-06], [111.79139203403506, -8.0593900285926, 5.999998847983079e-06], [111.79642379258878, -8.06149385525887, 5.999998847983079e-06], [111.79761223855687, -8.067321528296379, 5.999998847983079e-06], [111.8096016412256, -8.07569344927037, 5.999998847983079e-06], [111.81416222712465, -8.0885345397121, 5.999998847983079e-06], [111.82488459920427, -8.089490128849448, 5.999998847983079e-06], [111.82493205989567, -8.091760718665839, 5.999998847983079e-06], [111.83565418224364, -8.0946868774887, 5.999998847983079e-06], [111.83894313817935, -8.091938440859277, 5.999998847983079e-06], [111.84391028360966, -8.096354888984362, 5.999998847983079e-06], [111.84259773089352, -8.103854294512878, 5.999998847983079e-06], [111.84693056871521, -8.106417264419418, 5.999998847983079e-06], [111.84642675936787, -8.11063767615953, 5.999998847983079e-06], [111.85621000031013, -8.113349999490087, 5.999998847983079e-06], [111.86397652433789, -8.108074979491796, 5.999998847983079e-06], [111.86821000040429, -8.110229999137355, 5.999998847983079e-06], [111.87062999979597, -8.105459999908378, 5.999998847983079e-06], [111.8670200003508, -8.098210000169665, 5.999998847983079e-06], [111.8747289720132, -8.08286355624744, 5.999998847983079e-06], [111.86919470307602, -8.081539998557403, 5.999998847983079e-06], [111.87046000171327, -8.077160001371071, 5.999998847983079e-06], [111.87425904801671, -8.07813977715775, 5.999998847983079e-06], [111.87618809115615, -8.073153157921352, 5.999998847983079e-06], [111.86835000014636, -8.068450000355291, 5.999998847983079e-06], [111.8644800004102, -8.075110000525347, 5.999998847983079e-06], [111.85647000060115, -8.070400000316921, 5.999998847983079e-06], [111.85834000017189, -8.065580000202942, 5.999998847983079e-06], [111.85465000036078, -8.064049999314493, 5.999998847983079e-06], [111.85697000019333, -8.058440001982412, 5.999998847983079e-06], [111.85021000071224, -8.057199999958504, 5.999998847983079e-06], [111.85097000059541, -8.054220000362243, 5.999998847983079e-06], [111.85420000099731, -8.05563999999273, 5.999998847983079e-06], [111.85492999984494, -8.053449999989718, 5.999998847983079e-06], [111.84948999921536, -8.048729999907929, 5.999998847983079e-06], [111.85078000062461, -8.046899999826852, 5.999998847983079e-06], [111.83904000082147, -8.041200001879169, 5.999998847983079e-06], [111.83201000010531, -8.041250000594385, 5.999998847983079e-06], [111.82778000051903, -8.036159999961734, 5.999998847983079e-06], [111.82859999977836, -8.04619000088037, 5.999998847983079e-06], [111.80923000010775, -8.040370000602202, 5.999998847983079e-06], [111.80230999989473, -8.047239999708761, 5.999998847983079e-06]]], [[[112.45891596421538, -7.58781391843061, 5.999998847983079e-06], [112.45492913139, -7.587900848536535, 5.999998847983079e-06], [112.4553276932203, -7.591295408015948, 5.999998847983079e-06], [112.45033050633026, -7.591119701490885, 5.999998847983079e-06], [112.44946468490657, -7.596199864826716, 5.999998847983079e-06], [112.44490000179152, -7.593530000517553, 5.999998847983079e-06], [112.44871357564975, -7.604438787880634, 5.999998847983079e-06], [112.44499661649866, -7.605643494348165, 5.999998847983079e-06], [112.44847984569093, -7.609150901569491, 5.999998847983079e-06], [112.44694747252981, -7.614704564296909, 5.999998847983079e-06], [112.449610423985, -7.62675823271017, 5.999998847983079e-06], [112.44710000017683, -7.629179999648776, 5.999998847983079e-06], [112.45112999974657, -7.647659999852223, 5.999998847983079e-06], [112.45054000064103, -7.674820000302884, 5.999998847983079e-06], [112.45397000105945, -7.686129999956905, 5.999998847983079e-06], [112.45005999844535, -7.711459998630938, 5.999998847983079e-06], [112.45321999942537, -7.718049998498424, 5.999998847983079e-06], [112.45737000044234, -7.7195799996955285, 5.999998847983079e-06], [112.46700000047524, -7.741370000335904, 5.999998847983079e-06], [112.46487000151177, -7.745280000344672, 5.999998847983079e-06], [112.4665900003964, -7.751040000183802, 5.999998847983079e-06], [112.47147000026102, -7.753289998827948, 5.999998847983079e-06], [112.46882413835576, -7.768421033844565, 5.999998847983079e-06], [112.47855779409097, -7.767896650865378, 5.999998847983079e-06], [112.49394877448258, -7.762630328273171, 5.999998847983079e-06], [112.49882410131106, -7.755065355407308, 5.999998847983079e-06], [112.51257512360816, -7.751259184717296, 5.999998847983079e-06], [112.51557000076421, -7.736430000126975, 5.999998847983079e-06], [112.50899000030985, -7.710820000479821, 5.999998847983079e-06], [112.51230000107766, -7.669059999274113, 5.999998847983079e-06], [112.50704000037312, -7.659879999250741, 5.999998847983079e-06], [112.50705000131722, -7.646009999306773, 5.999998847983079e-06], [112.50068000002679, -7.643419999491297, 5.999998847983079e-06], [112.49798062278516, -7.637098708416429, 5.999998847983079e-06], [112.49905732821335, -7.630945422003201, 5.999998847983079e-06], [112.50848000067191, -7.629629998892107, 5.999998847983079e-06], [112.51144000163535, -7.637300000679767, 5.999998847983079e-06], [112.51497253216705, -7.636849103135927, 5.999998847983079e-06], [112.51701485466045, -7.634937066080197, 5.999998847983079e-06], [112.51472348593265, -7.624429018847881, 5.999998847983079e-06], [112.52407230789169, -7.626959575250202, 5.999998847983079e-06], [112.5278800013781, -7.612939999207985, 5.999998847983079e-06], [112.5240509729037, -7.603706134317033, 5.999998847983079e-06], [112.50379165277991, -7.604899699311413, 5.999998847983079e-06], [112.49603387205484, -7.6110566820873675, 5.999998847983079e-06], [112.48958683933053, -7.605386546194795, 5.999998847983079e-06], [112.47877000041562, -7.607970001092799, 5.999998847983079e-06], [112.46717000125285, -7.601360001833342, 5.999998847983079e-06], [112.45891596421538, -7.58781391843061, 5.999998847983079e-06]]], [[[112.00452135335665, -7.464596394176293, 5.999998847983079e-06], [112.00122092054492, -7.465050240637066, 5.999998847983079e-06], [111.99660610245385, -7.471547984865427, 5.999998847983079e-06], [111.98754005217995, -7.471877308682778, 5.999998847983079e-06], [111.98496395343969, -7.474750350767801, 5.999998847983079e-06], [111.97979265777619, -7.472494775586243, 5.999998847983079e-06], [111.97340000007601, -7.481760000113538, 5.999998847983079e-06], [111.97393887156716, -7.485214310624686, 5.999998847983079e-06], [111.96496000009664, -7.492210001938856, 5.999998847983079e-06], [111.95655000025447, -7.485760000036495, 5.999998847983079e-06], [111.95026000112665, -7.500069999578908, 5.999998847983079e-06], [111.94299490141914, -7.529029585832771, 5.999998847983079e-06], [111.94797397378149, -7.533003678134454, 5.999998847983079e-06], [111.94647925620048, -7.539302205154278, 5.999998847983079e-06], [111.95417000014749, -7.56924999975516, 5.999998847983079e-06], [111.95104276252249, -7.577839875567791, 5.999998847983079e-06], [111.96169839247148, -7.579919712722048, 5.999998847983079e-06], [111.96138962713528, -7.587562050314888, 5.999998847983079e-06], [111.96584999967615, -7.590059999735219, 5.999998847983079e-06], [111.96576000016279, -7.587869999815475, 5.999998847983079e-06], [111.97322000015095, -7.5868500015110545, 5.999998847983079e-06], [111.97488226071899, -7.5901864259410114, 5.999998847983079e-06], [111.98718090752597, -7.589288124205757, 5.999998847983079e-06], [111.99071000110338, -7.585849998590596, 5.999998847983079e-06], [111.98835999933698, -7.583199999378984, 5.999998847983079e-06], [111.9944686663382, -7.57092510895039, 5.999998847983079e-06], [111.99896081678227, -7.569456897399723, 5.999998847983079e-06], [112.00382428405238, -7.575199431719368, 5.999998847983079e-06], [112.00699938930558, -7.57526457622417, 5.999998847983079e-06], [112.01927436011493, -7.561556540358603, 5.999998847983079e-06], [112.03099244641506, -7.556582202308795, 5.999998847983079e-06], [112.03628265207266, -7.548770444506508, 5.999998847983079e-06], [112.03996626665872, -7.548166768085318, 5.999998847983079e-06], [112.04006810866251, -7.550669876583706, 5.999998847983079e-06], [112.04303003651225, -7.545339415832519, 5.999998847983079e-06], [112.04516363053347, -7.545807242276525, 5.999998847983079e-06], [112.04562000074895, -7.527459998706707, 5.999998847983079e-06], [112.0307610727372, -7.514630820401552, 5.999998847983079e-06], [112.02980928882906, -7.5062372715472065, 5.999998847983079e-06], [112.02779864452584, -7.505999324366703, 5.999998847983079e-06], [112.02847121138245, -7.502092680463014, 5.999998847983079e-06], [112.04227586130537, -7.496083823687748, 5.999998847983079e-06], [112.03376820471036, -7.48393485474018, 5.999998847983079e-06], [112.03588224510278, -7.476502448114065, 5.999998847983079e-06], [112.02779464881947, -7.467596062773429, 5.999998847983079e-06], [112.0223051725773, -7.471167667968901, 5.999998847983079e-06], [112.02176774737372, -7.466832587570568, 5.999998847983079e-06], [112.01371967157303, -7.46877082986304, 5.999998847983079e-06], [112.00452135335665, -7.464596394176293, 5.999998847983079e-06]]], [[[111.08439026876324, -7.385789965528276, 5.999998847983079e-06], [111.07895200098388, -7.382501000257436, 5.999998847983079e-06], [111.07624800011344, -7.3836709996789525, 5.999998847983079e-06], [111.07269000054683, -7.391449999802545, 5.999998847983079e-06], [111.07363900057588, -7.40667400102134, 5.999998847983079e-06], [111.06996300011016, -7.411018999882312, 5.999998847983079e-06], [111.07487000063729, -7.427129000551309, 5.999998847983079e-06], [111.07185500032055, -7.432965999776159, 5.999998847983079e-06], [111.07544700022238, -7.451279999845213, 5.999998847983079e-06], [111.07353100062087, -7.459321000419381, 5.999998847983079e-06], [111.08483895658642, -7.46511767474643, 5.999998847983079e-06], [111.08633745876975, -7.4610826884255115, 5.999998847983079e-06], [111.10252457018356, -7.463581814433537, 5.999998847983079e-06], [111.1050750004629, -7.465178000159407, 5.999998847983079e-06], [111.10363400033924, -7.468828000825395, 5.999998847983079e-06], [111.1079890004973, -7.471598999919105, 5.999998847983079e-06], [111.12310100099256, -7.47138299998905, 5.999998847983079e-06], [111.12458493789185, -7.479489916475987, 5.999998847983079e-06], [111.13187200050972, -7.479430999410651, 5.999998847983079e-06], [111.13716710647724, -7.4654949694163, 5.999998847983079e-06], [111.13462779284954, -7.461967244910355, 5.999998847983079e-06], [111.13211674381394, -7.464309293101418, 5.999998847983079e-06], [111.13209063517853, -7.460978908285383, 5.999998847983079e-06], [111.1286070026427, -7.461073800925932, 5.999998847983079e-06], [111.13099270166187, -7.456982516009839, 5.999998847983079e-06], [111.12515632120979, -7.450264156463668, 5.999998847983079e-06], [111.12605998236818, -7.442779344183589, 5.999998847983079e-06], [111.12287648325699, -7.439245317244948, 5.999998847983079e-06], [111.123980369909, -7.4344074662819155, 5.999998847983079e-06], [111.11857247147444, -7.4199429062295765, 5.999998847983079e-06], [111.11953884851438, -7.409696554976657, 5.999998847983079e-06], [111.12452187166733, -7.408913227882569, 5.999998847983079e-06], [111.1234154409864, -7.4055942832462485, 5.999998847983079e-06], [111.12726582061846, -7.40443413297081, 5.999998847983079e-06], [111.12925247720862, -7.399523559029437, 5.999998847983079e-06], [111.11083100056167, -7.396477001133026, 5.999998847983079e-06], [111.09871664044026, -7.402741548207932, 5.999998847983079e-06], [111.0974770003825, -7.398203000286216, 5.999998847983079e-06], [111.09468100034886, -7.39888200017197, 5.999998847983079e-06], [111.08742200020215, -7.391261000458544, 5.999998847983079e-06], [111.0874180000042, -7.385753000097693, 5.999998847983079e-06], [111.08439026876324, -7.385789965528276, 5.999998847983079e-06]]], [[[111.78183871688974, -7.344504087074617, 5.999998847983079e-06], [111.77884440567233, -7.344873379172544, 5.999998847983079e-06], [111.77988112169733, -7.349302287391233, 5.999998847983079e-06], [111.77648067315683, -7.352855891922013, 5.999998847983079e-06], [111.77862218762387, -7.352766661884112, 5.999998847983079e-06], [111.77636645865663, -7.356392962807064, 5.999998847983079e-06], [111.77835449955066, -7.356592834688089, 5.999998847983079e-06], [111.77410525355944, -7.360753606675082, 5.999998847983079e-06], [111.7600300005302, -7.355280000424312, 5.999998847983079e-06], [111.7631700005204, -7.3666200015414045, 5.999998847983079e-06], [111.75975000194434, -7.367119999630265, 5.999998847983079e-06], [111.762640000791, -7.369459999187828, 5.999998847983079e-06], [111.75969000166991, -7.3780300000769525, 5.999998847983079e-06], [111.76381999990043, -7.384070000697138, 5.999998847983079e-06], [111.76398000153061, -7.39522000027194, 5.999998847983079e-06], [111.77060000037133, -7.397849999751759, 5.999998847983079e-06], [111.77241000056594, -7.405219999744311, 5.999998847983079e-06], [111.7750800011012, -7.406249999952066, 5.999998847983079e-06], [111.77353000029925, -7.4077800006175725, 5.999998847983079e-06], [111.77604000010261, -7.408280000242424, 5.999998847983079e-06], [111.77537999977851, -7.415450001143239, 5.999998847983079e-06], [111.77079000034213, -7.421190000460679, 5.999998847983079e-06], [111.77365000084818, -7.422650000122722, 5.999998847983079e-06], [111.77354999949242, -7.427690000008902, 5.999998847983079e-06], [111.78184000058229, -7.434459999959986, 5.999998847983079e-06], [111.79830999956391, -7.4408400007754025, 5.999998847983079e-06], [111.79418000043508, -7.451800000266009, 5.999998847983079e-06], [111.78833000062498, -7.458420000441149, 5.999998847983079e-06], [111.78800013476108, -7.464591491750513, 5.999998847983079e-06], [111.80041499751468, -7.461098137781664, 5.999998847983079e-06], [111.8052520516205, -7.4543098759715365, 5.999998847983079e-06], [111.81451411428944, -7.451019210216628, 5.999998847983079e-06], [111.82099911341093, -7.43955461717698, 5.999998847983079e-06], [111.8446044594404, -7.439828331321245, 5.999998847983079e-06], [111.86157223378558, -7.435905871717329, 5.999998847983079e-06], [111.87763210782255, -7.440965594819863, 5.999998847983079e-06], [111.88237759215987, -7.437360207146436, 5.999998847983079e-06], [111.89392086810236, -7.437730711432541, 5.999998847983079e-06], [111.90393825582174, -7.433403413191791, 5.999998847983079e-06], [111.9166385313074, -7.4346177301172505, 5.999998847983079e-06], [111.918169999865, -7.428290000494083, 5.999998847983079e-06], [111.91502375568527, -7.424856525243657, 5.999998847983079e-06], [111.91944016826943, -7.417326973351939, 5.999998847983079e-06], [111.91855999985235, -7.407010000335198, 5.999998847983079e-06], [111.87935000015783, -7.4085299998421155, 5.999998847983079e-06], [111.87426000023093, -7.4113800000396255, 5.999998847983079e-06], [111.87049535311465, -7.399109873192064, 5.999998847983079e-06], [111.87779553922053, -7.3987434351238, 5.999998847983079e-06], [111.87889247021732, -7.396538628581912, 5.999998847983079e-06], [111.87276000055601, -7.382459999807366, 5.999998847983079e-06], [111.86966074365553, -7.3852393304918715, 5.999998847983079e-06], [111.87251609537996, -7.380123489921093, 5.999998847983079e-06], [111.86977971743008, -7.37869581570451, 5.999998847983079e-06], [111.87038042804708, -7.362648969765116, 5.999998847983079e-06], [111.85888999909449, -7.361770000254255, 5.999998847983079e-06], [111.85706000060503, -7.363370000215303, 5.999998847983079e-06], [111.86055000039958, -7.365599999343361, 5.999998847983079e-06], [111.85288000034913, -7.365930000258936, 5.999998847983079e-06], [111.82433000000913, -7.362730000567315, 5.999998847983079e-06], [111.82123000020187, -7.351330000924185, 5.999998847983079e-06], [111.81456000023414, -7.353950000369068, 5.999998847983079e-06], [111.81964219469954, -7.3656856587355435, 5.999998847983079e-06], [111.81699710714207, -7.3735336767005135, 5.999998847983079e-06], [111.80599804856504, -7.361861231247857, 5.999998847983079e-06], [111.7848678000952, -7.3545624724150755, 5.999998847983079e-06], [111.78187919677309, -7.351878440979272, 5.999998847983079e-06], [111.78183871688974, -7.344504087074617, 5.999998847983079e-06]]]]}, "properties": {"OBJECTID": 1692, "WADMKC": "Gondang", "InPoly_FID": 1692, "MaxSimpTol": 200, "MinSimpTol": 200, "Shape_Length": 254857.8333072882, "Shape_Area": 439831364.21453184}}, {"type": "Feature", "id": 2360, "geometry": {"type": "Polygon", "coordinates": [[[111.99083751426305, -7.238050682889587, 5.999998847983079e-06], [111.98551008960654, -7.2428586034335085, 5.999998847983079e-06], [111.98233471216382, -7.241230860187551, 5.999998847983079e-06], [111.98278298047376, -7.24518992526523, 5.999998847983079e-06], [111.97823591152479, -7.246125397802562, 5.999998847983079e-06], [111.97740306456028, -7.250916206258478, 5.999998847983079e-06], [111.98137000060044, -7.256340000268299, 5.999998847983079e-06], [111.98097675679658, -7.276849698261978, 5.999998847983079e-06], [111.985340000794, -7.2815700003436445, 5.999998847983079e-06], [111.9832383257115, -7.288777017719713, 5.999998847983079e-06], [111.98628641547171, -7.288851892281541, 5.999998847983079e-06], [111.98849888426979, -7.29497612195992, 5.999998847983079e-06], [111.99293000137685, -7.293710000188663, 5.999998847983079e-06], [111.99313000049506, -7.302580000030789, 5.999998847983079e-06], [111.98969000092922, -7.30821000042127, 5.999998847983079e-06], [111.99098000144012, -7.312470000167487, 5.999998847983079e-06], [111.99604000033149, -7.314710000270883, 5.999998847983079e-06], [111.99258000157245, -7.319930000400336, 5.999998847983079e-06], [111.99619000101762, -7.3218199999796045, 5.999998847983079e-06], [111.99853999919077, -7.328169999702496, 5.999998847983079e-06], [111.99444000019916, -7.334229999505421, 5.999998847983079e-06], [111.99576999999475, -7.340850000092952, 5.999998847983079e-06], [112.00182999986711, -7.342820000028658, 5.999998847983079e-06], [112.00726000045097, -7.356969999594992, 5.999998847983079e-06], [112.00545000115467, -7.365639999980381, 5.999998847983079e-06], [112.00857000195168, -7.380039999926521, 5.999998847983079e-06], [112.00555000071378, -7.388370000447011, 5.999998847983079e-06], [112.00935000192636, -7.394740001324702, 5.999998847983079e-06], [112.00645144483002, -7.404337797427445, 5.999998847983079e-06], [112.01965328746807, -7.409832875295792, 5.999998847983079e-06], [112.02024075691781, -7.39991133369525, 5.999998847983079e-06], [112.02418514524433, -7.395594023224302, 5.999998847983079e-06], [112.03517910408547, -7.401842494453309, 5.999998847983079e-06], [112.04787441907416, -7.3996118656454595, 5.999998847983079e-06], [112.04630276258568, -7.3937753908460895, 5.999998847983079e-06], [112.06929012339523, -7.3970154960544745, 5.999998847983079e-06], [112.07560726511937, -7.383953009552179, 5.999998847983079e-06], [112.08152766949152, -7.382554913843493, 5.999998847983079e-06], [112.08608242622272, -7.375925925559941, 5.999998847983079e-06], [112.08601375540913, -7.369381807116837, 5.999998847983079e-06], [112.08933254080209, -7.368489647866322, 5.999998847983079e-06], [112.08900447067046, -7.358473227659632, 5.999998847983079e-06], [112.08445738016194, -7.356626404581026, 5.999998847983079e-06], [112.08499902924395, -7.350293545453285, 5.999998847983079e-06], [112.0798339526172, -7.346785939281292, 5.999998847983079e-06], [112.0767440525687, -7.336624054127123, 5.999998847983079e-06], [112.0725631387262, -7.333467877582079, 5.999998847983079e-06], [112.07483670733663, -7.325251972214134, 5.999998847983079e-06], [112.07832332497415, -7.324180520446584, 5.999998847983079e-06], [112.07712551047601, -7.313287656171061, 5.999998847983079e-06], [112.07972712586192, -7.313433097965196, 5.999998847983079e-06], [112.08406063831838, -7.305696871160805, 5.999998847983079e-06], [112.08580776812119, -7.307824999581252, 5.999998847983079e-06], [112.0900268136509, -7.303996479631275, 5.999998847983079e-06], [112.08727259965104, -7.302937893187336, 5.999998847983079e-06], [112.09001919593732, -7.2980765609927785, 5.999998847983079e-06], [112.08521268185618, -7.289434369057818, 5.999998847983079e-06], [112.08900447067046, -7.285968693574415, 5.999998847983079e-06], [112.07940209922245, -7.282661568529358, 5.999998847983079e-06], [112.08244000029072, -7.270009999546944, 5.999998847983079e-06], [112.06333343786534, -7.262238801625934, 5.999998847983079e-06], [112.06353000182594, -7.25738000014426, 5.999998847983079e-06], [112.05996430639229, -7.256261438173078, 5.999998847983079e-06], [112.06150610467735, -7.2485860867898575, 5.999998847983079e-06], [112.05840090721789, -7.248252963096248, 5.999998847983079e-06], [112.05626000001195, -7.251969999981067, 5.999998847983079e-06], [112.03172000184512, -7.241630000103561, 5.999998847983079e-06], [112.03448765733657, -7.255210378659192, 5.999998847983079e-06], [112.02735999986756, -7.259559999777332, 5.999998847983079e-06], [112.0252846364397, -7.2664444099548255, 5.999998847983079e-06], [112.02190292316274, -7.266477067900803, 5.999998847983079e-06], [112.01351246796621, -7.261459564472389, 5.999998847983079e-06], [112.01401634199223, -7.257901878993271, 5.999998847983079e-06], [112.00790090528704, -7.255205890073129, 5.999998847983079e-06], [112.00869110832672, -7.253317610936445, 5.999998847983079e-06], [112.00434323630043, -7.253314932209757, 5.999998847983079e-06], [112.00661383867381, -7.248989369317503, 5.999998847983079e-06], [112.00392841676013, -7.239475629719465, 5.999998847983079e-06], [111.99083751426305, -7.238050682889587, 5.999998847983079e-06]]]}, "properties": {"OBJECTID": 2360, "WADMKC": "Kedungadem", "InPoly_FID": 2360, "MaxSimpTol": 200, "MinSimpTol": 200, "Shape_Length": 69631.61969540993, "Shape_Area": 157361008.44688037}}, {"type": "Feature", "id": 3080, "geometry": {"type": "Polygon", "coordinates": [[[111.90619999900979, -7.618749999319059, 5.999998847983079e-06], [111.90231000097876, -7.617120000192012, 5.999998847983079e-06], [111.90082999959873, -7.623879999162339, 5.999998847983079e-06], [111.89022000047294, -7.623640000436041, 5.999998847983079e-06], [111.88739000100244, -7.630200000578045, 5.999998847983079e-06], [111.88307000010617, -7.629769999470313, 5.999998847983079e-06], [111.87583000022603, -7.640689999473149, 5.999998847983079e-06], [111.87607542175829, -7.654498468535761, 5.999998847983079e-06], [111.88518999992218, -7.654680000169627, 5.999998847983079e-06], [111.88942000040674, -7.658560000117273, 5.999998847983079e-06], [111.88768000053236, -7.661930000426123, 5.999998847983079e-06], [111.88241999982782, -7.661649998953831, 5.999998847983079e-06], [111.87661000020071, -7.669719999991368, 5.999998847983079e-06], [111.87184964155888, -7.690877369385574, 5.999998847983079e-06], [111.87606591578594, -7.6932351729624795, 5.999998847983079e-06], [111.87508000038856, -7.699610001052205, 5.999998847983079e-06], [111.86627999966076, -7.71090000119183, 5.999998847983079e-06], [111.8598199997553, -7.712930000066065, 5.999998847983079e-06], [111.85888999909449, -7.718730000010859, 5.999998847983079e-06], [111.86209000025747, -7.720449998953637, 5.999998847983079e-06], [111.85877000034222, -7.723259999301988, 5.999998847983079e-06], [111.85487000046881, -7.741070001206571, 5.999998847983079e-06], [111.84400999930114, -7.761949998817535, 5.999998847983079e-06], [111.84097000066667, -7.763409998647143, 5.999998847983079e-06], [111.83891999937424, -7.773230000215666, 5.999998847983079e-06], [111.84129000123212, -7.794357622479347, 5.999998847983079e-06], [111.88156657874835, -7.763595515644557, 5.999998847983079e-06], [111.8857125355499, -7.7548640531791895, 5.999998847983079e-06], [111.89399104628897, -7.747765266679198, 5.999998847983079e-06], [111.89120000046415, -7.720009999890326, 5.999998847983079e-06], [111.90281999971837, -7.709020000490578, 5.999998847983079e-06], [111.89254999945291, -7.691409999917911, 5.999998847983079e-06], [111.89784000029465, -7.6732200002251485, 5.999998847983079e-06], [111.90252074933768, -7.669090162857194, 5.999998847983079e-06], [111.89921370223051, -7.667181121039804, 5.999998847983079e-06], [111.90662627656154, -7.655336991670373, 5.999998847983079e-06], [111.91250175977963, -7.65539873814994, 5.999998847983079e-06], [111.91918634659096, -7.659489576068549, 5.999998847983079e-06], [111.92117000011314, -7.656729999653297, 5.999998847983079e-06], [111.91642313776015, -7.654868187682974, 5.999998847983079e-06], [111.92228000069902, -7.645920001343626, 5.999998847983079e-06], [111.93994999977987, -7.64749000028506, 5.999998847983079e-06], [111.93975999980908, -7.64428000051264, 5.999998847983079e-06], [111.93337000112214, -7.64395999994161, 5.999998847983079e-06], [111.93503413198259, -7.633892134975442, 5.999998847983079e-06], [111.930840000329, -7.632620001150406, 5.999998847983079e-06], [111.93320000034451, -7.627300000222646, 5.999998847983079e-06], [111.94137000088546, -7.6284199998716025, 5.999998847983079e-06], [111.94234065570278, -7.6245977062752, 5.999998847983079e-06], [111.9337565533754, -7.622843894062335, 5.999998847983079e-06], [111.93309268670237, -7.625438934293775, 5.999998847983079e-06], [111.92762000176947, -7.618520000309694, 5.999998847983079e-06], [111.92254000009169, -7.617219999716139, 5.999998847983079e-06], [111.91537999967917, -7.619750001279919, 5.999998847983079e-06], [111.90619999900979, -7.618749999319059, 5.999998847983079e-06]]]}, "properties": {"OBJECTID": 3080, "WADMKC": "Loceret", "InPoly_FID": 3080, "MaxSimpTol": 200, "MinSimpTol": 200, "Shape_Length": 61776.53650796191, "Shape_Area": 70488321.99706288}}, {"type": "Feature", "id": 3857, "geometry": {"type": "Polygon", "coordinates": [[[111.93753000038824, -7.558890000172666, 5.999998847983079e-06], [111.92991000056648, -7.557170000710745, 5.999998847983079e-06], [111.92838000075436, -7.56043000020406, 5.999998847983079e-06], [111.90511633882467, -7.562637605904593, 5.999998847983079e-06], [111.89820000014474, -7.5792399992717, 5.999998847983079e-06], [111.8932932664173, -7.5785568537734065, 5.999998847983079e-06], [111.88872886537324, -7.582985784307249, 5.999998847983079e-06], [111.888540000873, -7.593259998418286, 5.999998847983079e-06], [111.88137071996525, -7.596077475828519, 5.999998847983079e-06], [111.88077095437592, -7.599221102266636, 5.999998847983079e-06], [111.88374000137429, -7.600329999584777, 5.999998847983079e-06], [111.88231000022299, -7.610949999553565, 5.999998847983079e-06], [111.87645000036711, -7.612289999844503, 5.999998847983079e-06], [111.87573000066692, -7.61594999957359, 5.999998847983079e-06], [111.88999000031916, -7.623899999643674, 5.999998847983079e-06], [111.90082999959873, -7.623879999162339, 5.999998847983079e-06], [111.90274000114908, -7.6169400009897466, 5.999998847983079e-06], [111.92212000176376, -7.618600001450201, 5.999998847983079e-06], [111.92866000023852, -7.590149999639726, 5.999998847983079e-06], [111.92450000097244, -7.589009999457718, 5.999998847983079e-06], [111.92254000009169, -7.582749999521754, 5.999998847983079e-06], [111.91394000027871, -7.581239999669392, 5.999998847983079e-06], [111.91261000048316, -7.583990000404439, 5.999998847983079e-06], [111.90603000092709, -7.583400000846494, 5.999998847983079e-06], [111.90587000019521, -7.575010000843204, 5.999998847983079e-06], [111.91738999989033, -7.569739998350401, 5.999998847983079e-06], [111.9239000000245, -7.572849999438209, 5.999998847983079e-06], [111.9263700005432, -7.56428000073349, 5.999998847983079e-06], [111.9386613772846, -7.565914298276732, 5.999998847983079e-06], [111.94123000024506, -7.5596799994466926, 5.999998847983079e-06], [111.93753000038824, -7.558890000172666, 5.999998847983079e-06]]]}, "properties": {"OBJECTID": 3857, "WADMKC": "Nganjuk", "InPoly_FID": 3857, "MaxSimpTol": 200, "MinSimpTol": 200, "Shape_Length": 31434.891044207805, "Shape_Area": 24789714.227028117}}, {"type": "Feature", "id": 3877, "geometry": {"type": "Polygon", "coordinates": [[[112.02617641737842, -7.396887686418206, 5.999998847983079e-06], [112.02418514524433, -7.395594023224302, 5.999998847983079e-06], [112.02024075691781, -7.39991133369525, 5.999998847983079e-06], [112.01965328746807, -7.409832875295792, 5.999998847983079e-06], [112.01249691535101, -7.405713475221933, 5.999998847983079e-06], [111.9986724539828, -7.40338272195959, 5.999998847983079e-06], [111.98403927978849, -7.407425811380217, 5.999998847983079e-06], [111.97126003610111, -7.404979623613026, 5.999998847983079e-06], [111.95802304777588, -7.413319038726094, 5.999998847983079e-06], [111.95070643597506, -7.4074138931212135, 5.999998847983079e-06], [111.94318386024254, -7.406306657928863, 5.999998847983079e-06], [111.9424285594466, -7.410962050325367, 5.999998847983079e-06], [111.95769497764425, -7.418284343565583, 5.999998847983079e-06], [111.95953364936778, -7.428384691767672, 5.999998847983079e-06], [111.94036097812405, -7.440121091357149, 5.999998847983079e-06], [111.92536857573245, -7.4366756245574726, 5.999998847983079e-06], [111.92308000076517, -7.449370000060059, 5.999998847983079e-06], [111.93069000054115, -7.4600900013486, 5.999998847983079e-06], [111.94720000150238, -7.468519999714749, 5.999998847983079e-06], [111.94778000056222, -7.473539998222345, 5.999998847983079e-06], [111.95804999992937, -7.489070001208259, 5.999998847983079e-06], [111.96385000040905, -7.492319998488008, 5.999998847983079e-06], [111.97393887156716, -7.485214310624686, 5.999998847983079e-06], [111.97340000007601, -7.481760000113538, 5.999998847983079e-06], [111.97979265777619, -7.472494775586243, 5.999998847983079e-06], [111.98496395343969, -7.474750350767801, 5.999998847983079e-06], [111.98754005217995, -7.471877308682778, 5.999998847983079e-06], [111.99671981120251, -7.471510189401188, 5.999998847983079e-06], [112.00437997290399, -7.4639926454198, 5.999998847983079e-06], [112.01371967157303, -7.46877082986304, 5.999998847983079e-06], [112.02176774737372, -7.466832587570568, 5.999998847983079e-06], [112.0223051725773, -7.471167667968901, 5.999998847983079e-06], [112.02779464881947, -7.467596062773429, 5.999998847983079e-06], [112.03115474503741, -7.473482230227448, 5.999998847983079e-06], [112.03657000067417, -7.476020000484328, 5.999998847983079e-06], [112.03956000177489, -7.474379999833133, 5.999998847983079e-06], [112.03581999993841, -7.460410000037491, 5.999998847983079e-06], [112.0382600003199, -7.445580001506563, 5.999998847983079e-06], [112.044160001257, -7.436910000143637, 5.999998847983079e-06], [112.05202000127824, -7.433980000143909, 5.999998847983079e-06], [112.05280000125292, -7.430340000275758, 5.999998847983079e-06], [112.04943999935809, -7.428839999179927, 5.999998847983079e-06], [112.04772000047348, -7.4205700000290555, 5.999998847983079e-06], [112.04428999825838, -7.417400001883966, 5.999998847983079e-06], [112.04616000052408, -7.412250000214752, 5.999998847983079e-06], [112.04280999957331, -7.40854999955452, 5.999998847983079e-06], [112.0421112540127, -7.400732459638309, 5.999998847983079e-06], [112.03517910408547, -7.401842494453309, 5.999998847983079e-06], [112.02617641737842, -7.396887686418206, 5.999998847983079e-06]]]}, "properties": {"OBJECTID": 3877, "WADMKC": "Ngluyu", "InPoly_FID": 3877, "MaxSimpTol": 200, "MinSimpTol": 200, "Shape_Length": 50601.67464905216, "Shape_Area": 87999695.06697921}}, {"type": "Feature", "id": 3994, "geometry": {"type": "Polygon", "coordinates": [[[111.95031000045705, -7.626979999402845, 5.999998847983079e-06], [111.93320000034451, -7.627300000222646, 5.999998847983079e-06], [111.930840000329, -7.632620001150406, 5.999998847983079e-06], [111.93503413198259, -7.633892134975442, 5.999998847983079e-06], [111.93337000112214, -7.64395999994161, 5.999998847983079e-06], [111.93975999980908, -7.64428000051264, 5.999998847983079e-06], [111.93994999977987, -7.64749000028506, 5.999998847983079e-06], [111.92228000069902, -7.645920001343626, 5.999998847983079e-06], [111.91642313776015, -7.654868187682974, 5.999998847983079e-06], [111.92065000042943, -7.656050000305014, 5.999998847983079e-06], [111.92086910132387, -7.658862350189895, 5.999998847983079e-06], [111.90678808111052, -7.655194223490579, 5.999998847983079e-06], [111.89921370223051, -7.667181121039804, 5.999998847983079e-06], [111.90252074933768, -7.669090162857194, 5.999998847983079e-06], [111.89784000029465, -7.6732200002251485, 5.999998847983079e-06], [111.89244999989378, -7.692480000347535, 5.999998847983079e-06], [111.90281999971837, -7.709020000490578, 5.999998847983079e-06], [111.89120000046415, -7.720009999890326, 5.999998847983079e-06], [111.89373894578257, -7.747808643746721, 5.999998847983079e-06], [111.90739999282081, -7.7338367076213625, 5.999998847983079e-06], [111.92804652545962, -7.722563261910877, 5.999998847983079e-06], [111.93186659593398, -7.716168348020953, 5.999998847983079e-06], [111.93184720579858, -7.708774497606549, 5.999998847983079e-06], [111.94230953087482, -7.694046427701311, 5.999998847983079e-06], [111.94576462213743, -7.694042106535244, 5.999998847983079e-06], [111.94997503755222, -7.68591625042647, 5.999998847983079e-06], [111.95244972009017, -7.686478751302494, 5.999998847983079e-06], [111.95398419980062, -7.679709417530675, 5.999998847983079e-06], [111.95696000033331, -7.67909000054331, 5.999998847983079e-06], [111.95810000195472, -7.66364999996238, 5.999998847983079e-06], [111.9673317105502, -7.658313374769443, 5.999998847983079e-06], [111.95434885741547, -7.656564010080318, 5.999998847983079e-06], [111.9554927092162, -7.653022658542495, 5.999998847983079e-06], [111.94560842756742, -7.647268823838781, 5.999998847983079e-06], [111.95033241072845, -7.630517636862251, 5.999998847983079e-06], [111.95464042450556, -7.62897574666385, 5.999998847983079e-06], [111.95031000045705, -7.626979999402845, 5.999998847983079e-06]]]}, "properties": {"OBJECTID": 3994, "WADMKC": "Pace", "InPoly_FID": 3994, "MaxSimpTol": 200, "MinSimpTol": 200, "Shape_Length": 43318.71543475227, "Shape_Area": 52679229.21347741}}, {"type": "Feature", "id": 4890, "geometry": {"type": "MultiPolygon", "coordinates": [[[[112.95453768334862, -7.621238954234615, 5.999998847983079e-06], [112.95189672624485, -7.6332838805530905, 5.999998847983079e-06], [112.94617471390485, -7.637812712657366, 5.999998847983079e-06], [112.94246376987287, -7.646582610947142, 5.999998847983079e-06], [112.94534940919546, -7.647924254443158, 5.999998847983079e-06], [112.9430137571174, -7.655568601018364, 5.999998847983079e-06], [112.93620552978362, -7.6565287085419556, 5.999998847983079e-06], [112.93637321380615, -7.661459910982499, 5.999998847983079e-06], [112.93136330228008, -7.668707991231999, 5.999998847983079e-06], [112.92607638894796, -7.669867429251427, 5.999998847983079e-06], [112.92256194150293, -7.6757629641749014, 5.999998847983079e-06], [112.91860392034366, -7.67391898920804, 5.999998847983079e-06], [112.91685464626224, -7.678194890247155, 5.999998847983079e-06], [112.91074605112627, -7.678486938518939, 5.999998847983079e-06], [112.9094799997008, -7.682670000001046, 5.999998847983079e-06], [112.92160000034386, -7.684659999933765, 5.999998847983079e-06], [112.93297999939861, -7.691320001763855, 5.999998847983079e-06], [112.92970000056461, -7.694390000320597, 5.999998847983079e-06], [112.9375141523704, -7.7021086764779065, 5.999998847983079e-06], [112.9309099998113, -7.708359999466679, 5.999998847983079e-06], [112.93231552546438, -7.712724863274114, 5.999998847983079e-06], [112.93733858832623, -7.711511331506987, 5.999998847983079e-06], [112.94372000001735, -7.714539998447562, 5.999998847983079e-06], [112.94681017225538, -7.71209428524572, 5.999998847983079e-06], [112.96297000003739, -7.715719999932624, 5.999998847983079e-06], [112.96776000038862, -7.700960000156683, 5.999998847983079e-06], [112.9735300007311, -7.703659999704613, 5.999998847983079e-06], [112.97499527243542, -7.69860490752079, 5.999998847983079e-06], [112.98355999989873, -7.701739999914241, 5.999998847983079e-06], [112.98391780157137, -7.699222828947223, 5.999998847983079e-06], [112.97681676387913, -7.695351722287117, 5.999998847983079e-06], [112.97950424652814, -7.672850456371421, 5.999998847983079e-06], [112.96614000106312, -7.667800000727504, 5.999998847983079e-06], [112.95760000062634, -7.653340000073695, 5.999998847983079e-06], [112.96228150155923, -7.650831344178456, 5.999998847983079e-06], [112.95880748818345, -7.65064098606717, 5.999998847983079e-06], [112.95593576466298, -7.643570550455064, 5.999998847983079e-06], [112.96075530162074, -7.633281848763196, 5.999998847983079e-06], [112.95824541141188, -7.622626334039026, 5.999998847983079e-06], [112.95453768334862, -7.621238954234615, 5.999998847983079e-06]]], [[[111.90535731369624, -7.433322362407987, 5.999998847983079e-06], [111.89392086810236, -7.437730711432541, 5.999998847983079e-06], [111.88237759215987, -7.437360207146436, 5.999998847983079e-06], [111.87763210782255, -7.440965594819863, 5.999998847983079e-06], [111.86157223378558, -7.435905871717329, 5.999998847983079e-06], [111.8446044594404, -7.439828331321245, 5.999998847983079e-06], [111.82099911341093, -7.43955461717698, 5.999998847983079e-06], [111.81487272354747, -7.450680670340688, 5.999998847983079e-06], [111.8052520516205, -7.4543098759715365, 5.999998847983079e-06], [111.80058914940723, -7.460657922214752, 5.999998847983079e-06], [111.81338091381302, -7.463237818016, 5.999998847983079e-06], [111.82130765327, -7.472285724345968, 5.999998847983079e-06], [111.81862800033703, -7.483052277261775, 5.999998847983079e-06], [111.82562610008083, -7.495261311514727, 5.999998847983079e-06], [111.83859922715595, -7.498033052914226, 5.999998847983079e-06], [111.84057621607704, -7.503093259089608, 5.999998847983079e-06], [111.8457755041431, -7.5030256856799, 5.999998847983079e-06], [111.8495772112564, -7.507216184438, 5.999998847983079e-06], [111.84413158268158, -7.513643686142365, 5.999998847983079e-06], [111.85271999961725, -7.524349999738433, 5.999998847983079e-06], [111.85843224547348, -7.526196678782491, 5.999998847983079e-06], [111.86750999989724, -7.541180000256084, 5.999998847983079e-06], [111.86418999998199, -7.5458516025462705, 5.999998847983079e-06], [111.87116613232384, -7.549317964231878, 5.999998847983079e-06], [111.86405819646855, -7.56585867798095, 5.999998847983079e-06], [111.887092312792, -7.566580100978337, 5.999998847983079e-06], [111.88360151080191, -7.572701491346952, 5.999998847983079e-06], [111.88916725221503, -7.576400589657295, 5.999998847983079e-06], [111.89028367485689, -7.570663947652056, 5.999998847983079e-06], [111.89926000050191, -7.573910000021274, 5.999998847983079e-06], [111.90511633882467, -7.562637605904593, 5.999998847983079e-06], [111.92838000075436, -7.56043000020406, 5.999998847983079e-06], [111.92991000056648, -7.557170000710745, 5.999998847983079e-06], [111.94820205693047, -7.562772847214599, 5.999998847983079e-06], [111.9527000006098, -7.568349999812413, 5.999998847983079e-06], [111.94896579380523, -7.542070708768882, 5.999998847983079e-06], [111.94647925620048, -7.539302205154278, 5.999998847983079e-06], [111.94797397378149, -7.533003678134454, 5.999998847983079e-06], [111.9430207477465, -7.527436984498608, 5.999998847983079e-06], [111.95655000025447, -7.485760000036495, 5.999998847983079e-06], [111.94778000056222, -7.473539998222345, 5.999998847983079e-06], [111.94720000150238, -7.468519999714749, 5.999998847983079e-06], [111.93069000054115, -7.4600900013486, 5.999998847983079e-06], [111.92308000076517, -7.449370000060059, 5.999998847983079e-06], [111.92536857573245, -7.4366756245574726, 5.999998847983079e-06], [111.90535731369624, -7.433322362407987, 5.999998847983079e-06]]]]}, "properties": {"OBJECTID": 4890, "WADMKC": "Rejoso", "InPoly_FID": 4890, "MaxSimpTol": 200, "MinSimpTol": 200, "Shape_Length": 99490.8996222837, "Shape_Area": 204556497.17975035}}, {"type": "Feature", "id": 5099, "geometry": {"type": "Polygon", "coordinates": [[[111.74901577479791, -7.457022601874338, 5.999998847983079e-06], [111.72096851840328, -7.445273399426301, 5.999998847983079e-06], [111.71306000127186, -7.458498999722554, 5.999998847983079e-06], [111.7069540004704, -7.461319999205125, 5.999998847983079e-06], [111.70600626616756, -7.472859961252858, 5.999998847983079e-06], [111.6918482091304, -7.484329745996274, 5.999998847983079e-06], [111.69406600134486, -7.490898999327514, 5.999998847983079e-06], [111.69074699945789, -7.493233999605325, 5.999998847983079e-06], [111.6871630017486, -7.504221001033339, 5.999998847983079e-06], [111.68272841085638, -7.5085937352328465, 5.999998847983079e-06], [111.67591200076869, -7.509885000281168, 5.999998847983079e-06], [111.67814500685083, -7.519558276189952, 5.999998847983079e-06], [111.67235077984346, -7.518874524292052, 5.999998847983079e-06], [111.67115161158416, -7.525590469258663, 5.999998847983079e-06], [111.66548894464681, -7.5248717778725345, 5.999998847983079e-06], [111.6587112142186, -7.531904830517582, 5.999998847983079e-06], [111.66408727815616, -7.532609092026628, 5.999998847983079e-06], [111.6602466668045, -7.537854422272642, 5.999998847983079e-06], [111.66443016330346, -7.541967505424062, 5.999998847983079e-06], [111.67791289026623, -7.541551045017802, 5.999998847983079e-06], [111.67698829207353, -7.545328884341742, 5.999998847983079e-06], [111.6734186790869, -7.54463797755566, 5.999998847983079e-06], [111.67304414449549, -7.549025286494609, 5.999998847983079e-06], [111.70945605647171, -7.552580775582139, 5.999998847983079e-06], [111.71334119192207, -7.575810243100286, 5.999998847983079e-06], [111.72377000175338, -7.5772000003023905, 5.999998847983079e-06], [111.73233000138335, -7.5821100006557, 5.999998847983079e-06], [111.74237954250171, -7.582503828278127, 5.999998847983079e-06], [111.74149411894024, -7.585088638012428, 5.999998847983079e-06], [111.74867635445264, -7.5902594129914425, 5.999998847983079e-06], [111.74976477840374, -7.582207768823561, 5.999998847983079e-06], [111.7525583790372, -7.580039210524732, 5.999998847983079e-06], [111.77272999843646, -7.576469998454655, 5.999998847983079e-06], [111.78378000047326, -7.568729999146673, 5.999998847983079e-06], [111.77454471658297, -7.5618878859294165, 5.999998847983079e-06], [111.78122414616621, -7.561723369939507, 5.999998847983079e-06], [111.78671050166108, -7.565951432790105, 5.999998847983079e-06], [111.80077922483652, -7.559789903191419, 5.999998847983079e-06], [111.80418306811049, -7.554872464883489, 5.999998847983079e-06], [111.80203639731371, -7.548970310547997, 5.999998847983079e-06], [111.8067258618116, -7.543557606125438, 5.999998847983079e-06], [111.81437286319417, -7.541926639250878, 5.999998847983079e-06], [111.81763116861232, -7.548426981219628, 5.999998847983079e-06], [111.82578332681511, -7.544565436958901, 5.999998847983079e-06], [111.83310403583194, -7.548814350302024, 5.999998847983079e-06], [111.83878168666827, -7.540370467751011, 5.999998847983079e-06], [111.8403776668397, -7.519240413817187, 5.999998847983079e-06], [111.84970148958271, -7.508216637278541, 5.999998847983079e-06], [111.8457755041431, -7.5030256856799, 5.999998847983079e-06], [111.84057621607704, -7.503093259089608, 5.999998847983079e-06], [111.83859922715595, -7.498033052914226, 5.999998847983079e-06], [111.82507727256134, -7.494661526672871, 5.999998847983079e-06], [111.81862800033703, -7.483052277261775, 5.999998847983079e-06], [111.82148513881056, -7.472571332735478, 5.999998847983079e-06], [111.81313856182409, -7.463104515957916, 5.999998847983079e-06], [111.8022554182581, -7.459676008231171, 5.999998847983079e-06], [111.77046201644873, -7.469639721335289, 5.999998847983079e-06], [111.74901577479791, -7.457022601874338, 5.999998847983079e-06]]]}, "properties": {"OBJECTID": 5099, "WADMKC": "Saradan", "InPoly_FID": 5099, "MaxSimpTol": 200, "MinSimpTol": 200, "Shape_Length": 69582.21450220712, "Shape_Area": 194993147.4949741}}, {"type": "Feature", "id": 5649, "geometry": {"type": "Polygon", "coordinates": [[[111.95463490615478, -7.26097519574372, 5.999998847983079e-06], [111.95449109216601, -7.27456227050665, 5.999998847983079e-06], [111.94616179876559, -7.274930059256859, 5.999998847983079e-06], [111.9377600014403, -7.284429999959304, 5.999998847983079e-06], [111.92943062988647, -7.275827326278302, 5.999998847983079e-06], [111.92546622350217, -7.27949195916947, 5.999998847983079e-06], [111.9248828719297, -7.288297229100278, 5.999998847983079e-06], [111.91787688767263, -7.288745993812162, 5.999998847983079e-06], [111.91381229128636, -7.2946442026217735, 5.999998847983079e-06], [111.9196395825844, -7.300553254207082, 5.999998847983079e-06], [111.91875845835987, -7.30357635623193, 5.999998847983079e-06], [111.92071014263772, -7.302810305966748, 5.999998847983079e-06], [111.91923244992796, -7.3060957746656126, 5.999998847983079e-06], [111.9231457134265, -7.305603302196354, 5.999998847983079e-06], [111.92626000004003, -7.313439999706567, 5.999998847983079e-06], [111.93368999989094, -7.316810000516392, 5.999998847983079e-06], [111.9441600010713, -7.32827999979705, 5.999998847983079e-06], [111.93373000007394, -7.335469999133072, 5.999998847983079e-06], [111.92944000021319, -7.333150000004442, 5.999998847983079e-06], [111.93361999957077, -7.339369999294264, 5.999998847983079e-06], [111.93149000060734, -7.347079999420013, 5.999998847983079e-06], [111.93764000089136, -7.346029999735075, 5.999998847983079e-06], [111.9358300015951, -7.349710001511335, 5.999998847983079e-06], [111.93765000003883, -7.35414000011185, 5.999998847983079e-06], [111.94189000056916, -7.355690000508564, 5.999998847983079e-06], [111.94652000108684, -7.352890002000076, 5.999998847983079e-06], [111.94916000058653, -7.357880000388996, 5.999998847983079e-06], [111.95722999977171, -7.359760000357678, 5.999998847983079e-06], [111.9625700008422, -7.369970000592036, 5.999998847983079e-06], [111.96322000022222, -7.377989999668169, 5.999998847983079e-06], [111.98092999948605, -7.399710000814892, 5.999998847983079e-06], [111.9837195711755, -7.407418225171024, 5.999998847983079e-06], [111.9986724539828, -7.40338272195959, 5.999998847983079e-06], [112.00645144483002, -7.404337797427445, 5.999998847983079e-06], [112.00935000192636, -7.394740001324702, 5.999998847983079e-06], [112.00555000071378, -7.388370000447011, 5.999998847983079e-06], [112.00857000195168, -7.380039999926521, 5.999998847983079e-06], [112.00545000115467, -7.365639999980381, 5.999998847983079e-06], [112.00726000045097, -7.356969999594992, 5.999998847983079e-06], [112.00182999986711, -7.342820000028658, 5.999998847983079e-06], [111.99576999999475, -7.340850000092952, 5.999998847983079e-06], [111.99444000019916, -7.334229999505421, 5.999998847983079e-06], [111.99853999919077, -7.328169999702496, 5.999998847983079e-06], [111.99619000101762, -7.3218199999796045, 5.999998847983079e-06], [111.99258000157245, -7.319930000400336, 5.999998847983079e-06], [111.99604000033149, -7.314710000270883, 5.999998847983079e-06], [111.99098000144012, -7.312470000167487, 5.999998847983079e-06], [111.98969000092922, -7.30821000042127, 5.999998847983079e-06], [111.99313000049506, -7.302580000030789, 5.999998847983079e-06], [111.99293000137685, -7.293710000188663, 5.999998847983079e-06], [111.98849888426979, -7.29497612195992, 5.999998847983079e-06], [111.98628641547171, -7.288851892281541, 5.999998847983079e-06], [111.9832383257115, -7.288777017719713, 5.999998847983079e-06], [111.98534999994145, -7.281690000806355, 5.999998847983079e-06], [111.98311000047482, -7.279559999849059, 5.999998847983079e-06], [111.97190000040109, -7.277460000310842, 5.999998847983079e-06], [111.96900000061042, -7.2645300000273325, 5.999998847983079e-06], [111.95463490615478, -7.26097519574372, 5.999998847983079e-06]]]}, "properties": {"OBJECTID": 5649, "WADMKC": "Sugihwaras", "InPoly_FID": 5649, "MaxSimpTol": 200, "MinSimpTol": 200, "Shape_Length": 52739.09972244565, "Shape_Area": 90111926.49167614}}, {"type": "Feature", "id": 5696, "geometry": {"type": "MultiPolygon", "coordinates": [[[[111.40522836589692, -7.5913592081883365, 5.999998847983079e-06], [111.40244760578209, -7.589010126791619, 5.999998847983079e-06], [111.40078610159551, -7.591685647654919, 5.999998847983079e-06], [111.3964358535253, -7.5913099898956835, 5.999998847983079e-06], [111.39620861299608, -7.594011868503705, 5.999998847983079e-06], [111.39145412214971, -7.595123044533542, 5.999998847983079e-06], [111.37962899978687, -7.607492999716862, 5.999998847983079e-06], [111.37866054314706, -7.602894137917824, 5.999998847983079e-06], [111.37346981602565, -7.6051400023683975, 5.999998847983079e-06], [111.37281900097537, -7.608156997319174, 5.999998847983079e-06], [111.36200538252075, -7.607062853827851, 5.999998847983079e-06], [111.36050900036149, -7.600441000640079, 5.999998847983079e-06], [111.36437100149837, -7.59604399913815, 5.999998847983079e-06], [111.36154917310371, -7.593670377963372, 5.999998847983079e-06], [111.34617317661107, -7.598706250703732, 5.999998847983079e-06], [111.34404798543102, -7.616785158769773, 5.999998847983079e-06], [111.33347168929807, -7.62026224903452, 5.999998847983079e-06], [111.3448238702234, -7.623378162445044, 5.999998847983079e-06], [111.3623100012336, -7.6207500000154935, 5.999998847983079e-06], [111.36399107701524, -7.622802729277609, 5.999998847983079e-06], [111.36201000075962, -7.631770000309631, 5.999998847983079e-06], [111.3628300018156, -7.63619999926759, 5.999998847983079e-06], [111.3649912369981, -7.63470969340624, 5.999998847983079e-06], [111.36647601831375, -7.637022529433785, 5.999998847983079e-06], [111.36092166304684, -7.635551079606191, 5.999998847983079e-06], [111.3594659071963, -7.638359432503398, 5.999998847983079e-06], [111.35563828189039, -7.637759770041539, 5.999998847983079e-06], [111.35824692389845, -7.647376801641824, 5.999998847983079e-06], [111.36212015846797, -7.647223329971156, 5.999998847983079e-06], [111.36261371444465, -7.650424191624761, 5.999998847983079e-06], [111.3548299993573, -7.662830001495103, 5.999998847983079e-06], [111.36591999978043, -7.664410000215198, 5.999998847983079e-06], [111.37131479628661, -7.662151396291147, 5.999998847983079e-06], [111.3954200017711, -7.661999999875108, 5.999998847983079e-06], [111.39465000004554, -7.6529500000319, 5.999998847983079e-06], [111.38516000155134, -7.652880000876938, 5.999998847983079e-06], [111.38411000123995, -7.650060000182299, 5.999998847983079e-06], [111.38516999980048, -7.644549998943786, 5.999998847983079e-06], [111.39000999858379, -7.643419999491297, 5.999998847983079e-06], [111.39177000034631, -7.63641000045198, 5.999998847983079e-06], [111.40578805494646, -7.629238642542843, 5.999998847983079e-06], [111.40560743967545, -7.60554128568167, 5.999998847983079e-06], [111.4026041758479, -7.605607768331447, 5.999998847983079e-06], [111.40522836589692, -7.5913592081883365, 5.999998847983079e-06]]], [[[111.94179404163218, -7.559936426335622, 5.999998847983079e-06], [111.9386613772846, -7.565914298276732, 5.999998847983079e-06], [111.9263700005432, -7.56428000073349, 5.999998847983079e-06], [111.9239000000245, -7.572849999438209, 5.999998847983079e-06], [111.91738999989033, -7.569739998350401, 5.999998847983079e-06], [111.90632999960444, -7.574359999320774, 5.999998847983079e-06], [111.90603000092709, -7.583400000846494, 5.999998847983079e-06], [111.91261000048316, -7.583990000404439, 5.999998847983079e-06], [111.91394000027871, -7.581239999669392, 5.999998847983079e-06], [111.92254000009169, -7.582749999521754, 5.999998847983079e-06], [111.92450000097244, -7.589009999457718, 5.999998847983079e-06], [111.92847000026772, -7.589660001119087, 5.999998847983079e-06], [111.92254000009169, -7.617219999716139, 5.999998847983079e-06], [111.92762000176947, -7.618520000309694, 5.999998847983079e-06], [111.93309268670237, -7.625438934293775, 5.999998847983079e-06], [111.9337565533754, -7.622843894062335, 5.999998847983079e-06], [111.95855106941508, -7.628659277392852, 5.999998847983079e-06], [111.95907693060599, -7.626032829300849, 5.999998847983079e-06], [111.96676377855958, -7.626042346465627, 5.999998847983079e-06], [111.9677143739966, -7.622667081253893, 5.999998847983079e-06], [111.97454022537792, -7.622336324769374, 5.999998847983079e-06], [111.97587089711335, -7.615348382457641, 5.999998847983079e-06], [111.97882461525974, -7.6150770852072975, 5.999998847983079e-06], [111.98283222342268, -7.60612536387859, 5.999998847983079e-06], [111.98559949443518, -7.60593400285862, 5.999998847983079e-06], [111.9884369831602, -7.589561565920006, 5.999998847983079e-06], [111.97488226071899, -7.5901864259410114, 5.999998847983079e-06], [111.97322000015095, -7.5868500015110545, 5.999998847983079e-06], [111.96576000016279, -7.587869999815475, 5.999998847983079e-06], [111.96606999978418, -7.590109999981312, 5.999998847983079e-06], [111.96138962713528, -7.587562050314888, 5.999998847983079e-06], [111.96173261469055, -7.579948305573213, 5.999998847983079e-06], [111.95104276252249, -7.577839875567791, 5.999998847983079e-06], [111.95408000063411, -7.569059999913754, 5.999998847983079e-06], [111.94179404163218, -7.559936426335622, 5.999998847983079e-06]]], [[[111.94056496666045, -7.559306496414249, 5.999998847983079e-06], [111.93979138784343, -7.559240382406917, 5.999998847983079e-06], [111.94120862483288, -7.559665748655639, 5.999998847983079e-06], [111.94056496666045, -7.559306496414249, 5.999998847983079e-06]]]]}, "properties": {"OBJECTID": 5696, "WADMKC": "Sukomoro", "InPoly_FID": 5696, "MaxSimpTol": 200, "MinSimpTol": 200, "Shape_Length": 72588.8367676603, "Shape_Area": 72452754.18683092}}, {"type": "Feature", "id": 6054, "geometry": {"type": "Polygon", "coordinates": [[[112.01974498210237, -7.57548106317647, 5.999998847983079e-06], [112.01564041158429, -7.5705912716208035, 5.999998847983079e-06], [112.01659000090821, -7.567119999554174, 5.999998847983079e-06], [112.00578099260763, -7.575640988864422, 5.999998847983079e-06], [111.99906011475713, -7.569492524013216, 5.999998847983079e-06], [111.99434888497822, -7.571019253605875, 5.999998847983079e-06], [111.98835999933698, -7.583199999378984, 5.999998847983079e-06], [111.99077000047951, -7.585590000371238, 5.999998847983079e-06], [111.98718090752597, -7.589288124205757, 5.999998847983079e-06], [111.9887600011667, -7.592769998990222, 5.999998847983079e-06], [111.98559949443518, -7.60593400285862, 5.999998847983079e-06], [111.98283222342268, -7.60612536387859, 5.999998847983079e-06], [111.97882461525974, -7.6150770852072975, 5.999998847983079e-06], [111.97587089711335, -7.615348382457641, 5.999998847983079e-06], [111.97454022537792, -7.622336324769374, 5.999998847983079e-06], [111.9677143739966, -7.622667081253893, 5.999998847983079e-06], [111.96676377855958, -7.626042346465627, 5.999998847983079e-06], [111.9593197946346, -7.625961926461068, 5.999998847983079e-06], [111.95855106941508, -7.628659277392852, 5.999998847983079e-06], [111.95033241072845, -7.630517636862251, 5.999998847983079e-06], [111.94560842756742, -7.647268823838781, 5.999998847983079e-06], [111.9554927092162, -7.653022658542495, 5.999998847983079e-06], [111.95434885741547, -7.656564010080318, 5.999998847983079e-06], [111.9673317105502, -7.658313374769443, 5.999998847983079e-06], [111.95810000195472, -7.66364999996238, 5.999998847983079e-06], [111.95683080462915, -7.679238636416341, 5.999998847983079e-06], [111.97789392379445, -7.683358820136941, 5.999998847983079e-06], [111.97959000144137, -7.6741800011723225, 5.999998847983079e-06], [111.99532000063128, -7.6746100002353135, 5.999998847983079e-06], [111.996139998094, -7.668700001850618, 5.999998847983079e-06], [112.00171000111484, -7.66181999999686, 5.999998847983079e-06], [112.01300999980361, -7.661480000513844, 5.999998847983079e-06], [112.01248312082151, -7.654698484791285, 5.999998847983079e-06], [112.03676448593322, -7.659245389792572, 5.999998847983079e-06], [112.03689999948875, -7.642000000224982, 5.999998847983079e-06], [112.04634112513989, -7.622292015121554, 5.999998847983079e-06], [112.0486579377498, -7.608213987824782, 5.999998847983079e-06], [112.0285871299867, -7.593809287923348, 5.999998847983079e-06], [112.02695909972256, -7.597183245168558, 5.999998847983079e-06], [112.01422303625428, -7.595779362585828, 5.999998847983079e-06], [112.01541499733005, -7.589896343988166, 5.999998847983079e-06], [112.02078782014605, -7.5871080925138, 5.999998847983079e-06], [112.01867009935593, -7.585792249122976, 5.999998847983079e-06], [112.01974498210237, -7.57548106317647, 5.999998847983079e-06]]]}, "properties": {"OBJECTID": 6054, "WADMKC": "Tanjunganom", "InPoly_FID": 6054, "MaxSimpTol": 200, "MinSimpTol": 200, "Shape_Length": 47487.09614538938, "Shape_Area": 77867699.95216452}}, {"type": "Feature", "id": 6206, "geometry": {"type": "Polygon", "coordinates": [[[111.90208216935807, -7.276677541575826, 5.999998847983079e-06], [111.8933099993361, -7.274220000353907, 5.999998847983079e-06], [111.88861531382977, -7.281672327316302, 5.999998847983079e-06], [111.88610000049151, -7.28156999945258, 5.999998847983079e-06], [111.88258833512891, -7.29535283735964, 5.999998847983079e-06], [111.87820621842567, -7.295781441404898, 5.999998847983079e-06], [111.8743752855229, -7.301182818360265, 5.999998847983079e-06], [111.88070000184155, -7.312670000474553, 5.999998847983079e-06], [111.87810000072817, -7.3159199998113955, 5.999998847983079e-06], [111.88379081278171, -7.320835976618051, 5.999998847983079e-06], [111.89106034298017, -7.317592662609967, 5.999998847983079e-06], [111.89425092351078, -7.3194996161460795, 5.999998847983079e-06], [111.89341002764131, -7.329519682768804, 5.999998847983079e-06], [111.87257999973265, -7.3284600003791285, 5.999998847983079e-06], [111.86808000160627, -7.3314500000034455, 5.999998847983079e-06], [111.86232000041124, -7.342170000141745, 5.999998847983079e-06], [111.86306000020294, -7.354760000207276, 5.999998847983079e-06], [111.87051853953044, -7.362364384068004, 5.999998847983079e-06], [111.86977971743008, -7.37869581570451, 5.999998847983079e-06], [111.87251609537996, -7.380123489921093, 5.999998847983079e-06], [111.86966074365553, -7.3852393304918715, 5.999998847983079e-06], [111.87276000055601, -7.382459999807366, 5.999998847983079e-06], [111.87889247021732, -7.396538628581912, 5.999998847983079e-06], [111.87761470026896, -7.3987815076668175, 5.999998847983079e-06], [111.87112829079247, -7.3981104993267985, 5.999998847983079e-06], [111.87135671619957, -7.403922332673116, 5.999998847983079e-06], [111.87639999834178, -7.411599998966346, 5.999998847983079e-06], [111.87935000015783, -7.4085299998421155, 5.999998847983079e-06], [111.91855999985235, -7.407010000335198, 5.999998847983079e-06], [111.91944016826943, -7.417326973351939, 5.999998847983079e-06], [111.91502375568527, -7.424856525243657, 5.999998847983079e-06], [111.918169999865, -7.428290000494083, 5.999998847983079e-06], [111.91653000044803, -7.434450000247571, 5.999998847983079e-06], [111.93972011820374, -7.440275599412171, 5.999998847983079e-06], [111.9598083083676, -7.426879335760429, 5.999998847983079e-06], [111.95769497764425, -7.418284343565583, 5.999998847983079e-06], [111.9424285594466, -7.410962050325367, 5.999998847983079e-06], [111.94318386024254, -7.406306657928863, 5.999998847983079e-06], [111.95070643597506, -7.4074138931212135, 5.999998847983079e-06], [111.95802304777588, -7.413319038726094, 5.999998847983079e-06], [111.97126003610111, -7.404979623613026, 5.999998847983079e-06], [111.9837195711755, -7.407418225171024, 5.999998847983079e-06], [111.98092999948605, -7.399710000814892, 5.999998847983079e-06], [111.96322000022222, -7.377989999668169, 5.999998847983079e-06], [111.9625700008422, -7.369970000592036, 5.999998847983079e-06], [111.95722999977171, -7.359760000357678, 5.999998847983079e-06], [111.94916000058653, -7.357880000388996, 5.999998847983079e-06], [111.94652000108684, -7.352890002000076, 5.999998847983079e-06], [111.94189000056916, -7.355690000508564, 5.999998847983079e-06], [111.93765000003883, -7.35414000011185, 5.999998847983079e-06], [111.9358300015951, -7.349710001511335, 5.999998847983079e-06], [111.93764000089136, -7.346029999735075, 5.999998847983079e-06], [111.93149000060734, -7.347079999420013, 5.999998847983079e-06], [111.93361999957077, -7.339369999294264, 5.999998847983079e-06], [111.92944000021319, -7.333150000004442, 5.999998847983079e-06], [111.93373000007394, -7.335469999133072, 5.999998847983079e-06], [111.94459000124161, -7.33013000023318, 5.999998847983079e-06], [111.93368999989094, -7.316810000516392, 5.999998847983079e-06], [111.92626000004003, -7.313439999706567, 5.999998847983079e-06], [111.92318589237425, -7.305641249072513, 5.999998847983079e-06], [111.91923244992796, -7.3060957746656126, 5.999998847983079e-06], [111.9196395825844, -7.300553254207082, 5.999998847983079e-06], [111.91365906654669, -7.295998252447616, 5.999998847983079e-06], [111.91756000066798, -7.288929999581946, 5.999998847983079e-06], [111.9248828719297, -7.288297229100278, 5.999998847983079e-06], [111.92537651953452, -7.279760815940666, 5.999998847983079e-06], [111.91436000040329, -7.281350000302992, 5.999998847983079e-06], [111.90208216935807, -7.276677541575826, 5.999998847983079e-06]]]}, "properties": {"OBJECTID": 6206, "WADMKC": "Temayang", "InPoly_FID": 6206, "MaxSimpTol": 200, "MinSimpTol": 200, "Shape_Length": 72268.97016412854, "Shape_Area": 126594684.73541346}}, {"type": "Feature", "id": 6737, "geometry": {"type": "Polygon", "coordinates": [[[111.84063244791886, -7.522712735379471, 5.999998847983079e-06], [111.83789615530894, -7.528603735269716, 5.999998847983079e-06], [111.83878168666827, -7.540370467751011, 5.999998847983079e-06], [111.83310403583194, -7.548814350302024, 5.999998847983079e-06], [111.82578332681511, -7.544565436958901, 5.999998847983079e-06], [111.81763116861232, -7.548426981219628, 5.999998847983079e-06], [111.81437286319417, -7.541926639250878, 5.999998847983079e-06], [111.8065389861814, -7.543653675861807, 5.999998847983079e-06], [111.80212001699192, -7.548801595242773, 5.999998847983079e-06], [111.80418306811049, -7.554872464883489, 5.999998847983079e-06], [111.80152630784426, -7.556602219278533, 5.999998847983079e-06], [111.79871584852783, -7.5695839592295595, 5.999998847983079e-06], [111.7943388117975, -7.574081018973514, 5.999998847983079e-06], [111.79457663717574, -7.589930060687021, 5.999998847983079e-06], [111.78571503896889, -7.603031021865484, 5.999998847983079e-06], [111.78999934171408, -7.614207499138686, 5.999998847983079e-06], [111.78938105915181, -7.62048902036566, 5.999998847983079e-06], [111.78527558223358, -7.622456928190637, 5.999998847983079e-06], [111.78433761351619, -7.626947870471454, 5.999998847983079e-06], [111.78625365354188, -7.63555906960862, 5.999998847983079e-06], [111.7837260665219, -7.647425422315975, 5.999998847983079e-06], [111.7812054144959, -7.64829495864547, 5.999998847983079e-06], [111.78293546552857, -7.650435747077064, 5.999998847983079e-06], [111.7704089700329, -7.661710588914889, 5.999998847983079e-06], [111.77169048775262, -7.665190055527047, 5.999998847983079e-06], [111.7681313904447, -7.6655368912370445, 5.999998847983079e-06], [111.76183034293722, -7.678230156158509, 5.999998847983079e-06], [111.76975000007647, -7.680409999194122, 5.999998847983079e-06], [111.78220999957982, -7.676390000446709, 5.999998847983079e-06], [111.79000000107752, -7.681039999390843, 5.999998847983079e-06], [111.81545999985943, -7.640350000062064, 5.999998847983079e-06], [111.81415000015532, -7.630640000000949, 5.999998847983079e-06], [111.80143000036092, -7.620880001852116, 5.999998847983079e-06], [111.80146000049817, -7.618249999689105, 5.999998847983079e-06], [111.82038999995277, -7.589259999459521, 5.999998847983079e-06], [111.83214999984739, -7.562829999569856, 5.999998847983079e-06], [111.84162999919413, -7.564450000323539, 5.999998847983079e-06], [111.8458340311805, -7.561894792669881, 5.999998847983079e-06], [111.84148000120295, -7.558719999283233, 5.999998847983079e-06], [111.84177467287063, -7.553145513156068, 5.999998847983079e-06], [111.84825679828153, -7.555783384826512, 5.999998847983079e-06], [111.85016591049975, -7.551248473221334, 5.999998847983079e-06], [111.85905999987214, -7.556029998773262, 5.999998847983079e-06], [111.85865876555383, -7.54711294781679, 5.999998847983079e-06], [111.84839757865961, -7.540439076395086, 5.999998847983079e-06], [111.85149161814495, -7.537892985861942, 5.999998847983079e-06], [111.84696000111718, -7.532410000344724, 5.999998847983079e-06], [111.8467300009634, -7.5248199996011875, 5.999998847983079e-06], [111.84063244791886, -7.522712735379471, 5.999998847983079e-06]]]}, "properties": {"OBJECTID": 6737, "WADMKC": "Wilangan", "InPoly_FID": 6737, "MaxSimpTol": 200, "MinSimpTol": 200, "Shape_Length": 54309.06666683976, "Shape_Area": 52228957.178882755}}]}