{
"type": "FeatureCollection",
"name": "Batas_4_Kecamatan_Nganjuk",
"crs": { "type": "name", "properties": { "name": "urn:ogc:def:crs:OGC:1.3:CRS84" } },
"features": [
{ "type": "Feature", "properties": { "Kecamatan": "Bagor" }, "geometry": { "type": "Polygon", "coordinates": [ [ [ 111.820389999952766, -7.589259999459521 ], [ 111.832149999847388, -7.562829999569856 ], [ 111.841629999194126, -7.564450000323539 ], [ 111.845834031180502, -7.561894792669881 ], [ 111.841480001202953, -7.558719999283233 ], [ 111.841774672870628, -7.553145513156068 ], [ 111.848256798281525, -7.555783384826512 ], [ 111.850165910499754, -7.551248473221334 ], [ 111.859059999872144, -7.556029998773262 ], [ 111.858658765553827, -7.54711294781679 ], [ 111.848397578659615, -7.540439076395086 ], [ 111.851491618144948, -7.537892985861942 ], [ 111.846960001117182, -7.532410000344724 ], [ 111.846730000963404, -7.524819999601188 ], [ 111.839490712548965, -7.522595898820946 ], [ 111.843271739546125, -7.513896162865647 ], [ 111.851849999230907, -7.522769999896124 ], [ 111.85843224547348, -7.526196678782491 ], [ 111.867389998449994, -7.540859998617418 ], [ 111.864189999981988, -7.545851602546271 ], [ 111.871166132323836, -7.549317964231878 ], [ 111.870301368217241, -7.553762063100275 ], [ 111.867702998444472, -7.553765633193557 ], [ 111.866398733585143, -7.562949894821116 ], [ 111.864610836438089, -7.562157774121418 ], [ 111.865346080548676, -7.567294682902124 ], [ 111.877071746833167, -7.566507554270803 ], [ 111.877371559559251, -7.564561156673952 ], [ 111.879959619367497, -7.567500186975407 ], [ 111.887092312792007, -7.566580100978337 ], [ 111.883561925640578, -7.572292665287924 ], [ 111.887620000257897, -7.573369999529193 ], [ 111.887746713018615, -7.575843795274492 ], [ 111.889781151897068, -7.576186439769222 ], [ 111.890283674856889, -7.570663947652056 ], [ 111.899899999836208, -7.576229999943427 ], [ 111.89820000014474, -7.5792399992717 ], [ 111.891225683298103, -7.579506076979962 ], [ 111.892418517536342, -7.581242293501891 ], [ 111.888647963098748, -7.583218971495212 ], [ 111.888540000872993, -7.593259998418286 ], [ 111.881370719965247, -7.596077475828519 ], [ 111.880770954375919, -7.599221102266636 ], [ 111.883740001374292, -7.600329999584777 ], [ 111.882090000114957, -7.611339999618477 ], [ 111.87317999978228, -7.611199998357469 ], [ 111.868176465396417, -7.616654536869638 ], [ 111.862449220369925, -7.612931323177443 ], [ 111.856620353426877, -7.61599911175542 ], [ 111.848222762912073, -7.612420771771338 ], [ 111.837623193226719, -7.613897415551809 ], [ 111.822849999527392, -7.625660001838765 ], [ 111.814849999764064, -7.636379999271545 ], [ 111.814150000155323, -7.630640000000949 ], [ 111.80161656122452, -7.618782191303604 ], [ 111.80161656122452, -7.618120219690281 ], [ 111.820389999952766, -7.589259999459521 ] ] ] } },
{ "type": "Feature", "properties": { "Kecamatan": "Gondang" }, "geometry": { "type": "MultiPolygon", "coordinates": [ [ [ [ 112.006999389305577, -7.57526457622417 ], [ 112.003824284052385, -7.575199431719368 ], [ 111.998960816782272, -7.569456897399723 ], [ 111.994468666338193, -7.57092510895039 ], [ 111.988359999336978, -7.583199999378984 ], [ 111.99071000110338, -7.585849998590596 ], [ 111.987180907525968, -7.589288124205757 ], [ 111.974882260718985, -7.590186425941011 ], [ 111.973220000150945, -7.586850001511054 ], [ 111.965760000162788, -7.587869999815475 ], [ 111.965849999676152, -7.590059999735219 ], [ 111.961389627135276, -7.587562050314888 ], [ 111.961698392471476, -7.579919712722048 ], [ 111.951042762522491, -7.577839875567791 ], [ 111.954170000147485, -7.56924999975516 ], [ 111.946479256200476, -7.539302205154278 ], [ 111.947973973781487, -7.533003678134454 ], [ 111.942994901419141, -7.529029585832771 ], [ 111.950260001126651, -7.500069999578908 ], [ 111.956550000254467, -7.485760000036495 ], [ 111.964960000096639, -7.492210001938856 ], [ 111.973938871567157, -7.485214310624686 ], [ 111.973400000076012, -7.481760000113538 ], [ 111.979792657776187, -7.472494775586243 ], [ 111.984963953439689, -7.474750350767801 ], [ 111.987540052179952, -7.471877308682778 ], [ 111.996606102453853, -7.471547984865427 ], [ 112.001220920544924, -7.465050240637066 ], [ 112.004521353356651, -7.464596394176293 ], [ 112.011211025887121, -7.467632341301293 ], [ 112.011211025887121, -7.570561244036322 ], [ 112.006999389305577, -7.57526457622417 ] ] ], [ [ [ 111.878892470217323, -7.396538628581912 ], [ 111.877795539220529, -7.3987434351238 ], [ 111.870495353114649, -7.399109873192064 ], [ 111.874260000230933, -7.411380000039625 ], [ 111.879350000157828, -7.408529999842115 ], [ 111.918559999852349, -7.407010000335198 ], [ 111.919440168269432, -7.417326973351939 ], [ 111.915023755685269, -7.424856525243657 ], [ 111.918169999865, -7.428290000494083 ], [ 111.916638531307399, -7.43461773011725 ], [ 111.903938255821743, -7.433403413191791 ], [ 111.893920868102356, -7.437730711432541 ], [ 111.88237759215987, -7.437360207146436 ], [ 111.877632107822549, -7.440965594819863 ], [ 111.86157223378558, -7.435905871717329 ], [ 111.844604459440404, -7.439828331321245 ], [ 111.820999113410934, -7.43955461717698 ], [ 111.814514114289437, -7.451019210216628 ], [ 111.805252051620499, -7.454309875971536 ], [ 111.80161656122452, -7.459411878156382 ], [ 111.80161656122452, -7.3952819905468 ], [ 111.878345094847958, -7.3952819905468 ], [ 111.878892470217323, -7.396538628581912 ] ] ] ] } },
{ "type": "Feature", "properties": { "Kecamatan": "Rejoso" }, "geometry": { "type": "Polygon", "coordinates": [ [ [ 111.805252051620499, -7.454309875971536 ], [ 111.814872723547467, -7.450680670340688 ], [ 111.820999113410934, -7.43955461717698 ], [ 111.844604459440404, -7.439828331321245 ], [ 111.86157223378558, -7.435905871717329 ], [ 111.877632107822549, -7.440965594819863 ], [ 111.88237759215987, -7.437360207146436 ], [ 111.893920868102356, -7.437730711432541 ], [ 111.905357313696243, -7.433322362407987 ], [ 111.925368575732449, -7.436675624557473 ], [ 111.923080000765168, -7.449370000060059 ], [ 111.930690000541148, -7.4600900013486 ], [ 111.947200001502381, -7.468519999714749 ], [ 111.947780000562219, -7.473539998222345 ], [ 111.956550000254467, -7.485760000036495 ], [ 111.943020747746502, -7.527436984498608 ], [ 111.947973973781487, -7.533003678134454 ], [ 111.946479256200476, -7.539302205154278 ], [ 111.948965793805229, -7.542070708768882 ], [ 111.952700000609795, -7.568349999812413 ], [ 111.948202056930469, -7.562772847214599 ], [ 111.92991000056648, -7.557170000710745 ], [ 111.928380000754359, -7.56043000020406 ], [ 111.905116338824669, -7.562637605904593 ], [ 111.899260000501911, -7.573910000021274 ], [ 111.890283674856889, -7.570663947652056 ], [ 111.889167252215032, -7.576400589657295 ], [ 111.88360151080191, -7.572701491346952 ], [ 111.887092312792007, -7.566580100978337 ], [ 111.864058196468548, -7.56585867798095 ], [ 111.871166132323836, -7.549317964231878 ], [ 111.864189999981988, -7.545851602546271 ], [ 111.867509999897237, -7.541180000256084 ], [ 111.85843224547348, -7.526196678782491 ], [ 111.85271999961725, -7.524349999738433 ], [ 111.844131582681584, -7.513643686142365 ], [ 111.849577211256403, -7.507216184438 ], [ 111.845775504143106, -7.5030256856799 ], [ 111.840576216077039, -7.503093259089608 ], [ 111.838599227155953, -7.498033052914226 ], [ 111.825626100080825, -7.495261311514727 ], [ 111.818628000337029, -7.483052277261775 ], [ 111.821307653269997, -7.472285724345968 ], [ 111.81338091381302, -7.463237818016 ], [ 111.80161656122452, -7.460865134867323 ], [ 111.80161656122452, -7.459259210119005 ], [ 111.805252051620499, -7.454309875971536 ] ] ] } },
{ "type": "Feature", "properties": { "Kecamatan": "Sukomoro" }, "geometry": { "type": "MultiPolygon", "coordinates": [ [ [ [ 111.961389627135276, -7.587562050314888 ], [ 111.966069999784182, -7.590109999981312 ], [ 111.965760000162788, -7.587869999815475 ], [ 111.973220000150945, -7.586850001511054 ], [ 111.974882260718985, -7.590186425941011 ], [ 111.988436983160199, -7.589561565920006 ], [ 111.985599494435178, -7.60593400285862 ], [ 111.982832223422676, -7.60612536387859 ], [ 111.97882461525974, -7.615077085207298 ], [ 111.975870897113353, -7.615348382457641 ], [ 111.974540225377922, -7.622336324769374 ], [ 111.9677143739966, -7.622667081253893 ], [ 111.966763778559582, -7.626042346465627 ], [ 111.959076930605988, -7.626032829300849 ], [ 111.95855106941508, -7.628659277392852 ], [ 111.933756553375403, -7.622843894062335 ], [ 111.933092686702366, -7.625438934293775 ], [ 111.927620001769469, -7.618520000309694 ], [ 111.922540000091686, -7.617219999716139 ], [ 111.928470000267723, -7.589660001119087 ], [ 111.924500000972444, -7.589009999457718 ], [ 111.922540000091686, -7.582749999521754 ], [ 111.913940000278714, -7.581239999669392 ], [ 111.912610000483156, -7.583990000404439 ], [ 111.906030000927089, -7.583400000846494 ], [ 111.906329999604438, -7.574359999320774 ], [ 111.917389999890332, -7.569739998350401 ], [ 111.923900000024503, -7.572849999438209 ], [ 111.926370000543201, -7.56428000073349 ], [ 111.938661377284603, -7.565914298276732 ], [ 111.941794041632178, -7.559936426335622 ], [ 111.954080000634107, -7.569059999913754 ], [ 111.951042762522491, -7.577839875567791 ], [ 111.961732614690547, -7.579948305573213 ], [ 111.961389627135276, -7.587562050314888 ] ] ], [ [ [ 111.941208624832882, -7.559665748655639 ], [ 111.939791387843428, -7.559240382406917 ], [ 111.940564966660446, -7.559306496414249 ], [ 111.941208624832882, -7.559665748655639 ] ] ] ] } }
]
}
